131695 2001 XS254,e,4.2653,94.7661,8.2214,37.27539,0.0043308,0.05216381,27.5572,09/04.0/2017,2000,H 7.7,0.15
# From MPO273203
131696 2001 XT254,e,0.5186,359.3750,133.7518,53.08107,0.0025486,0.32380901,1.4067,09/04.0/2017,2000,H 7.4,0.15
# From MPO273203
131697 2001 XH255,e,2.8573,323.1509,220.1825,35.00454,0.0047590,0.07778302,319.1929,09/04.0/2017,2000,H 8.2,0.15
# From MPO338165
133067 2003 FB128,e,8.8624,209.4256,306.4726,39.86801,0.0039153,0.25994958,52.7123,09/04.0/2017,2000,H 6.8,0.15
# From MPO338171
134210 2005 PQ21,e,6.4821,316.3209,21.7760,61.75888,0.0020307,0.39121500,7.5979,09/04.0/2017,2000,H 6.8,0.15
# From MPO412858
134340 Pluto,e,17.1282,110.2963,114.2321,39.71366,0.0039382,0.25320716,39.8122,09/04.0/2017,2000,H-0.76,0.12
# From MPO157307
134568 1999 RH215,e,10.2077,276.6694,56.7662,43.44778,0.0034415,0.14697163,27.8221,09/04.0/2017,2000,H 8.1,0.15
# From MPO254080
134860 2000 OJ67,e,1.1146,96.7893,145.6353,42.76769,0.0035240,0.02303438,97.5097,09/04.0/2017,2000,H 6.1,0.15
# From MPO341424
135024 2001 KO76,e,2.1483,44.2127,294.6358,43.94925,0.0033828,0.10915757,272.9903,09/04.0/2017,2000,H 6.9,0.15
# From MPO186653
135182 2001 QT322,e,1.8453,224.1706,43.0491,36.92947,0.0043918,0.02117032,107.0656,09/04.0/2017,2000,H 6.2,0.15
# From MPO157308
135571 2002 GG32,e,14.6596,35.6949,230.6496,55.87561,0.0023598,0.35802517,354.9891,09/04.0/2017,2000,H 7.2,0.15
# From MPO102879
135742 2002 PB171,e,5.4538,336.7899,287.9854,43.55792,0.0034285,0.12662919,69.9939,09/04.0/2017,2000,H 7.3,0.15
# From MPO412864
136108 Haumea,e,28.2037,121.9704,238.8692,43.35404,0.0034527,0.18939226,214.0666,09/04.0/2017,2000,H 0.2,0.15
# From MPO351816
136120 2003 LG7,e,20.0655,238.2851,342.5475,62.91690,0.0019749,0.48441144,15.0789,09/04.0/2017,2000,H 7.9,0.15
# From MPO401188
136199 Eris,e,44.2041,35.8778,151.5176,67.65424,0.0017712,0.44166760,204.8817,09/04.0/2017,2000,H-1.1,0.15
# From MPO385591
136204 2003 WL7,e,11.1648,4.7543,70.8594,20.13607,0.0109079,0.25691595,25.2857,09/04.0/2017,2000,H 8.8,0.15
# From MPO412866
136472 Makemake,e,28.9867,79.5861,295.9459,45.71103,0.0031891,0.15473528,161.0548,09/04.0/2017,2000,H-0.3,0.15
# From MPO385597
137294 1999 RE215,e,1.3547,149.3367,112.3162,44.86328,0.0032800,0.10823963,77.0439,09/04.0/2017,2000,H 6.5,0.15
# From MPO366751
137295 1999 RB216,e,12.7068,175.7743,208.4749,47.25124,0.0030345,0.28813774,3.7992,09/04.0/2017,2000,H 7.4,0.15
# From MPO385604
138537 2000 OK67,e,4.8945,4.3510,358.4490,46.36853,0.0031215,0.13650780,354.5205,09/04.0/2017,2000,H 6.2,0.15
# From MPO157310
138628 2000 QM251,e,15.7328,355.6477,312.8137,44.54940,0.0033147,0.26635088,47.8345,09/04.0/2017,2000,H 7.1,0.15
# From MPO390669
139775 2001 QG298,e,6.4974,162.5909,208.7296,39.16451,0.0040213,0.18942181,10.2214,09/04.0/2017,2000,H 6.9,0.15
# From MPO385636
143685 2003 SS317,e,5.9131,177.6931,197.3040,36.27509,0.0045112,0.23210986,10.7179,09/04.0/2017,2000,H 8.0,0.15
# From MPO385636
143707 2003 UY117,e,7.5483,265.1422,112.2113,55.13439,0.0024075,0.41140140,11.4950,09/04.0/2017,2000,H 5.9,0.15
# From MPO338231
143751 2003 US292,e,7.6659,29.2341,346.4980,41.93668,0.0036292,0.24885854,18.0090,09/04.0/2017,2000,H 8.6,0.15
# From MPO338234
143991 2003 YO179,e,19.4351,66.9573,66.6141,44.50566,0.0033196,0.13820627,324.4305,09/04.0/2017,2000,H 5.9,0.15
# From MPO390705
144897 2004 UX10,e,9.5364,148.0130,147.1480,38.83124,0.0040732,0.04250932,101.9450,09/04.0/2017,2000,H 4.5,0.15
# From MPO114579
144908 2004 YH32,e,78.9745,47.7261,348.8526,8.162453,0.0422642,0.56487767,186.5930,09/04.0/2017,2000,H12.9,0.15
# From MPO396195
145451 2005 RM43,e,28.7976,84.6177,318.3369,89.69030,0.0011603,0.60855975,5.4417,09/04.0/2017,2000,H 4.5,0.15
# From MPO396195
145452 2005 RN43,e,19.3123,186.9260,168.0783,41.45453,0.0036927,0.02069320,347.1022,09/04.0/2017,2000,H 3.7,0.15
# From MPO390709
145453 2005 RR43,e,28.5530,85.8099,278.4036,43.03641,0.0034910,0.13573512,46.8121,09/04.0/2017,2000,H 4.1,0.15
# From MPO385646
145474 2005 SA278,e,16.2918,170.4197,277.2803,91.25449,0.0011306,0.63809517,351.9683,09/04.0/2017,2000,H 6.2,0.15
# From MPO385646
145480 2005 TB190,e,26.5298,180.4303,171.1036,75.39428,0.0015056,0.38725075,0.5735,09/04.0/2017,2000,H 4.5,0.15
# From MPO385646
145486 2005 UJ438,e,3.7810,263.0196,208.5045,17.72759,0.0132047,0.53222172,34.5875,09/04.0/2017,2000,H10.8,0.15
# From MPO385647
145627 2006 RY102,e,18.7477,94.6428,346.3515,6.360075,0.0614484,0.27494577,193.7025,09/04.0/2017,2000,H11.1,0.15
# From MPO366838
148112 1999 RA216,e,0.7958,192.0828,81.1655,43.76055,0.0034047,0.04188441,97.1547,09/04.0/2017,2000,H 7.1,0.15
# From MPO338257
148209 2000 CR105,e,22.7565,128.2915,317.0364,222.6797,0.0002966,0.80117536,5.6670,09/04.0/2017,2000,H 6.3,0.15
# From MPO157315
148780 Altjira,e,5.2035,1.9553,295.6912,44.06525,0.0033695,0.06315890,128.2622,09/04.0/2017,2000,H 5.7,0.15
# From MPO232108
148975 2001 XA255,e,12.6192,105.8959,90.6097,29.10436,0.0062772,0.67870101,16.5131,09/04.0/2017,2000,H11.1,0.15
# From MPO157316
149348 2002 VS130,e,2.9950,275.5157,87.5594,44.87299,0.0032789,0.11869339,60.2637,09/04.0/2017,2000,H 6.3,0.15
# From MPO385667
149349 2002 VA131,e,7.0900,224.5139,255.6132,42.08166,0.0036105,0.23873017,314.8088,09/04.0/2017,2000,H 6.8,0.15
# From MPO157316
149560 2003 QZ91,e,34.8143,130.8241,137.0808,41.48307,0.0036889,0.47773636,35.2835,09/04.0/2017,2000,H 8.1,0.15
# From MPO385674
150642 2001 CZ31,e,10.2115,136.2204,47.4992,45.40041,0.0032219,0.12383023,339.3261,09/04.0/2017,2000,H 5.9,0.15
# From MPO217461
154783 2004 PA44,e,3.2888,212.7605,72.5852,14.20445,0.0184106,0.75921811,90.4143,09/04.0/2017,2000,H13.6,0.15
# From MPO157319
160091 2000 OL67,e,1.9818,322.6293,311.4037,44.97598,0.0032676,0.11088018,71.3774,09/04.0/2017,2000,H 6.8,0.15
# From MPO157319
160147 2001 KN76,e,2.6452,326.8427,284.4209,44.04399,0.0033719,0.09484430,348.5348,09/04.0/2017,2000,H 6.6,0.15
# From MPO121425
160148 2001 KV76,e,15.2944,39.5671,228.7329,70.58648,0.0016620,0.51289365,354.6524,09/04.0/2017,2000,H 7.8,0.15
# From MPO157319
160256 2002 PD149,e,4.9070,103.5079,41.6008,42.81012,0.0035187,0.06344933,223.8325,09/04.0/2017,2000,H 6.3,0.15
# From MPO385710
160427 2005 RL43,e,12.2662,162.6190,166.2186,24.42759,0.0081636,0.04176907,81.6749,09/04.0/2017,2000,H 7.9,0.15
# From MPO338356
168700 2000 GE147,e,4.9896,154.6639,50.5904,39.70143,0.0039400,0.23678108,19.7903,09/04.0/2017,2000,H 8.3,0.15
# From MPO410867
168703 2000 GP183,e,4.9079,23.3184,219.5300,40.09177,0.0038826,0.08190417,353.4634,09/04.0/2017,2000,H 6.0,0.15
# From MPO127094
169071 2001 FR185,e,5.6322,287.5838,335.2322,39.57553,0.0039588,0.19724954,341.1114,09/04.0/2017,2000,H 8.0,0.15
# From MPO385768
174567 Varda,e,21.4957,183.9544,181.2060,45.99327,0.0031598,0.13987696,270.6867,09/04.0/2017,2000,H 3.3,0.15
# From MPO385769
175113 2004 PF115,e,13.3492,84.4980,86.0150,38.91417,0.0040602,0.06930451,165.9389,09/04.0/2017,2000,H 4.5,0.15
# From MPO136058
181708 1993 FW,e,7.7324,187.8321,41.9994,44.06018,0.0033700,0.05518280,351.7411,09/04.0/2017,2000,H 7.0,0.15
# From MPO186768
181855 1998 WT31,e,28.7377,41.6711,41.9242,45.82131,0.0031776,0.17987965,354.4765,09/04.0/2017,2000,H 7.2,0.15
# From MPO338413
181867 1999 CV118,e,5.4826,305.6562,148.6441,52.94928,0.0025581,0.28976894,32.8812,09/04.0/2017,2000,H 7.4,0.15
# From MPO356235
181868 1999 CG119,e,16.6841,304.2904,255.9513,49.84241,0.0028010,0.29621160,332.5034,09/04.0/2017,2000,H 7.6,0.15
# From MPO338413
181871 1999 CO153,e,0.8084,278.3909,161.4899,43.78236,0.0034022,0.08368259,59.2221,09/04.0/2017,2000,H 7.4,0.15
# From MPO186768
181874 1999 HW11,e,17.1632,198.3412,325.6093,53.18490,0.0025411,0.26107729,41.3003,09/04.0/2017,2000,H 6.8,0.15
# From MPO136118
181902 1999 RD215,e,25.9897,210.3223,137.8693,120.9723,0.0007408,0.68965822,7.7989,09/04.0/2017,2000,H 7.4,0.15
# From MPO410898
182222 2000 YU1,e,6.1230,207.9792,316.6503,43.46870,0.0034391,0.09810870,282.7369,09/04.0/2017,2000,H 6.8,0.15
# From MPO136227
182223 2000 YC2,e,19.9273,227.7121,145.7174,58.15156,0.0022226,0.38078642,32.2731,09/04.0/2017,2000,H 7.5,0.15
# From MPO186769
182294 2001 KU76,e,10.6298,44.9734,204.7025,45.36854,0.0032253,0.16916470,356.2299,09/04.0/2017,2000,H 6.6,0.15
# From MPO157328
182397 2001 QW297,e,17.0472,141.0196,108.0198,51.61490,0.0026579,0.23728699,67.5160,09/04.0/2017,2000,H 5.9,0.15
# From MPO338417
182926 2002 FU6,e,2.1930,55.5149,188.7927,46.07935,0.0031510,0.15154170,312.4041,09/04.0/2017,2000,H 7.3,0.15
# From MPO186770
182933 2002 GZ31,e,1.0554,117.1836,163.3886,50.91126,0.0027132,0.24602026,338.6085,09/04.0/2017,2000,H 6.4,0.15
# From MPO186770
182934 2002 GJ32,e,11.5792,244.8537,257.5893,44.55988,0.0033135,0.10972556,81.3390,09/04.0/2017,2000,H 5.4,0.15
# From MPO157328
183595 2003 TG58,e,1.6657,276.8039,236.9280,44.42372,0.0033288,0.10472644,301.4835,09/04.0/2017,2000,H 6.7,0.15
# From MPO273370
183963 2004 DJ64,e,2.4447,103.1809,129.6292,44.67161,0.0033011,0.10758069,321.6914,09/04.0/2017,2000,H 7.2,0.15
# From MPO157328
183964 2004 DJ71,e,11.3102,101.6689,56.6248,53.43218,0.0025235,0.38723453,1.3538,09/04.0/2017,2000,H 7.4,0.15
# From MPO338424
184212 2004 PB112,e,15.4542,356.8052,3.5027,106.3925,0.0008981,0.66792327,1.9876,09/04.0/2017,2000,H 7.3,0.15
# From MPO136887
184314 2005 EO302,e,5.7592,0.3675,267.3740,45.52325,0.0032089,0.14472367,319.8961,09/04.0/2017,2000,H 6.3,0.15
# From MPO138800
187661 2007 JG43,e,33.1044,62.4623,173.9115,24.04751,0.0083579,0.40657645,31.6599,09/04.0/2017,2000,H 9.3,0.15
# From MPC 23493
1993 RP,e,2.5704,192.0903,180.6399,39.32891,0.0039961,0.11354649,359.9788,09/10.0/1993,2000,H 9.0,0.15
# From MPO331225
1994 ES2,e,1.0622,154.6615,97.8671,46.13713,0.0031451,0.11927892,306.1837,09/04.0/2017,2000,H 7.6,0.15
# From MPO339365
1994 EV3,e,1.6556,19.4918,10.7690,43.18779,0.0034727,0.03545028,197.0155,09/04.0/2017,2000,H 7.1,0.15
# From MPC 33073
1994 TA,e,5.3954,137.7014,153.5927,16.74582,0.0143828,0.30260157,173.8267,09/04.0/2017,2000,H11.5,0.15
# From MPC 24084
